NOAA 2 (ITOS-D)
1 06235U 72082A   26190.06611782 -.00000036  00000-0  64529-4 0  9994
2 06235 102.0073 208.8771 0004521 125.8403 252.1592 12.53215688457697
SOLRAD-7B
1 01291U 65016D   26189.69449171  .00000003  00000-0  40772-4 0  9995
2 01291  70.0771 190.5386 0018372  93.2090 267.1118 13.94978074119709
OSCAR-7 (AO-7)
1 07530U 74089B   26190.32897198 -.00000038  00000-0  49724-4 0  9990
2 07530 101.9902 203.8062 0012663  89.1895 342.2557 12.53698424363293
UOSAT-2 (UO-11)
1 14781U 84021B   26190.70623792  .00000917  00000-0  98723-4 0  9990
2 14781  97.8072 156.0317 0009168 106.4358 253.7868 14.90840274260488
FLTSATCOM-7 (USA-20)
1 17181U 86096A   26190.74332014 -.00000264  00000-0  00000+0 0  9991
2 17181  12.6828 339.9461 0040425 331.1898  45.1078  0.98931435152195
FLTSATCOM-8 (USA-46)
1 20253U 89077A   26190.80759837 -.00000363  00000-0  00000+0 0  9990
2 20253  12.4150 351.0260 0003576  67.8059 285.2612  1.00265791260780
OSCAR 16 (PACSAT)
1 20439U 90005D   26190.07720069  .00000065  00000-0  39804-4 0  9990
2 20439  98.8513 226.2691 0010937 161.8631 225.4642 14.33943450905070
LUSAT (LO-19)
1 20442U 90005G   26190.01952797  .00000058  00000-0  37537-4 0  9996
2 20442  98.8846 212.4261 0012308 138.2781 221.9344 14.34129510905525
UFO 2 (USA 95)
1 22787U 93056A   26190.64582617  .00000128  00000-0  00000+0 0  9996
2 22787  11.9050   3.4301 0002932   8.7106 176.6140  1.00267758118778
EYESAT-1 (AO-27)
1 22825U 93061C   26190.16568541  .00000044  00000-0  33846-4 0  9998
2 22825  98.6870 257.5702 0009081  42.3993 317.7889 14.30948062710148
ITAMSAT (IO-26)
1 22826U 93061D   26190.13853778  .00000039  00000-0  31711-4 0  9998
2 22826  98.6818 257.4628 0009315  26.5022 333.6635 14.31375523710451
UFO 3 (USA 104)
1 23132U 94035A   26190.28163156 -.00000099  00000-0  00000-0 0  9991
2 23132  12.3772   5.5737 0001352 258.8979 114.1346  1.00270131131922
RADIO ROSTO (RS-15)
1 23439U 94085A   26190.82038807 -.00000037  00000-0  15634-3 0  9994
2 23439  64.8161 266.6132 0156721 359.6983   0.3824 11.27583503298450
UFO 4 (USA 108)
1 23467U 95003A   26190.74557347 -.00000016  00000-0  00000+0 0  9996
2 23467   9.6720  13.0316 0003118  92.7272 262.6228  1.00275242115170
UFO 7 (USA 127)
1 23967U 96042A   26190.28521073 -.00000294  00000-0  00000-0 0  9990
2 23967  11.1376  16.9595 0006383 113.2871 209.9656  1.00205695109708
JAS-2 (FO-29)
1 24278U 96046B   26190.04746765  .00000001  00000-0  35079-4 0  9994
2 24278  98.5224  35.9232 0350601  39.8653 322.7685 13.53275148476120
UFO 8 (USA 138)
1 25258U 98016A   26189.88618561 -.00000185  00000-0  00000-0 0  9990
2 25258  11.1565  22.6197 0003959 238.9484 137.3517  1.00266380104080
TECHSAT-1B (GO-32)
1 25397U 98043D   26190.68260220  .00000032  00000-0  34171-4 0  9999
2 25397  99.0080 184.0097 0002038 123.5145 236.6227 14.24432637454532
ISS (ZARYA)
1 25544U 98067A   26190.70194686  .00005376  00000-0  10580-3 0  9997
2 25544  51.6304 188.6620 0006668 275.8666  84.1562 15.48959671575242
UFO 10 (USA 146)
1 25967U 99063A   26190.31086377 -.00000183  00000-0  00000-0 0  9992
2 25967   9.8558  27.0927 0001350  99.6644 249.4342  1.00273579 97569
PCSAT (NO-44)
1 26931U 01043C   26190.71931582  .00000061  00000-0  53843-4 0  9997
2 26931  67.0489 185.9927 0005974 266.2577  93.7842 14.31963636293670
PROBA-1
1 26958U 01049B   26190.83670944  .00002076  00000-0  13622-3 0  9995
2 26958  97.9606 200.1602 0055959  47.3405 313.2518 15.07598868347033
SAUDISAT-1C (SO-50)
1 27607U 02058C   26190.07047632  .00000528  00000-0  80074-4 0  9992
2 27607  64.5518  61.2774 0074702 258.4036 100.8678 14.83090961267701
CUTE-1 (CO-55)
1 27844U 03031E   26189.95445865  .00000197  00000-0  10410-3 0  9990
2 27844  98.6739 198.2397 0010685 118.8005 241.4249 14.24348882194779
CUBESAT XI-IV (CO-57)
1 27848U 03031J   26189.46187375  .00000184  00000-0  99678-4 0  9999
2 27848  98.6772 197.4488 0010259 137.0463 223.1519 14.23632050194409
MOZHAYETS-4 (RS-22)
1 27939U 03042A   26190.90199990  .00001018  00000-0  16487-3 0  9992
2 27939  98.3481  15.9040 0010788 190.2727 278.6487 14.73509643218898
UFO 11 (USA 174)
1 28117U 03057A   26190.58381852 -.00000099  00000-0  00000+0 0  9990
2 28117   8.9499  33.7161 0002597  87.0640  92.5158  1.00270296 82679
CUBESAT XI-V (CO-58)
1 28895U 05043F   26190.68856933  .00000955  00000-0  15777-3 0  9999
2 28895  98.3008 346.7863 0015063 131.3789 228.8716 14.72693331105061
CAPE-1
1 31130U 07012P   26189.89082184  .00001076  00000-0  20096-3 0  9998
2 31130  98.4473 164.9681 0083531   4.4863 355.7069 14.64941961 21536
CUTE-1.7+APD II (CO-65)
1 32785U 08021C   26190.85228278  .00003026  00000-0  19206-3 0  9998
2 32785  97.8283 172.7468 0007395 321.0588  39.0107 15.09668455988611
SEEDS-II (CO-66)
1 32791U 08021J   26189.93516932  .00012773  00000-0  39659-3 0  9992
2 32791  97.7528 188.8830 0002351 170.9352 189.1933 15.33517693990629
YUBILEINY (RS-30)
1 32953U 08025A   26190.79327767  .00000103  00000-0  67330-3 0  9999
2 32953  82.5058 341.3769 0018533 261.5134  98.3845 12.43180747822508
KKS-1 (KISEKI)
1 33499U 09002H   26190.78988830  .00000828  00000-0  10830-3 0  9991
2 33499  98.1179 113.5903 0006992 207.8239 152.2601 14.83181134939545
SWISSCUBE
1 35932U 09051B   26190.54084366  .00000644  00000-0  13666-3 0  9990
2 35932  98.4016  98.8171 0007556 134.3316 225.8505 14.62524151892423
BEESAT
1 35933U 09051C   26190.56195696  .00000529  00000-0  11590-3 0  9998
2 35933  98.3943  98.4270 0005799 144.7622 215.3963 14.61756321892450
ITUPSAT-1
1 35935U 09051E   26189.54478970  .00000560  00000-0  12544-3 0  9990
2 35935  98.4027  96.5634 0007611 162.4704 197.6760 14.60472478891859
PROBA-2
1 36037U 09059B   26190.73002845  .00000125  00000-0  39764-4 0  9990
2 36037  98.2458  13.7710 0012624 206.1058 153.9504 14.54872119884800
XIWANG-1 (HOPE-1)
1 36122U 09072B   26190.81561874 -.00000051  00000-0 -18461-4 0  9992
2 36122 100.4032 144.2872 0007385 176.8858 183.2302 13.16440330795982
EWS-G2 (GOES-15)
1 36411U 10008A   26190.79529163  .00000033  00000-0  00000+0 0  9999
2 36411   1.3366  82.5328 0005225  52.2028 142.6761  1.00268011 59861
TISAT-1
1 36799U 10035E   26190.58372939  .00014864  00000-0  47466-3 0  9990
2 36799  98.0702 139.1348 0004097 131.0944 229.0650 15.32585813871138
HORYU-2
1 38340U 12025D   26190.65196307  .00002474  00000-0  25495-3 0  9998
2 38340  98.2198 324.5121 0009356 107.9109 252.3129 14.91206683752070
AAUSAT-3
1 39087U 13009B   26190.76394102  .00000415  00000-0  14548-3 0  9995
2 39087  98.3707  14.0446 0012220 139.5219 220.6881 14.39967446700422
STRAND-1
1 39090U 13009E   26190.75261338  .00000184  00000-0  76183-4 0  9999
2 39090  98.3931  10.4326 0009109 156.1916 203.9694 14.37176789700306
CUBEBUG-1 (CAPITAN BETO)
1 39153U 13018D   26189.95313867  .00001279  00000-0  11532-3 0  9996
2 39153  98.1694 350.8679 0012791  77.0589 283.2059 14.97440410714324
PROBA-V
1 39159U 13021A   26190.68051473  .00000061  00000-0  44770-4 0  9999
2 39159  98.3601 168.1783 0005384  72.5879 287.5889 14.23602758684315
ZACUBE-1 (TSHEPISOSAT)
1 39417U 13066B   26190.13615696  .00001581  00000-0  12533-3 0  9997
2 39417  97.8016 152.5825 0043657 174.6140 185.5562 15.01311101684029
TRITON-1
1 39427U 13066M   26190.85065219  .00001715  00000-0  20926-3 0  9991
2 39427  97.8224 100.1399 0090157 159.4144 201.0739 14.81785190677446
DELFI-N3XT
1 39428U 13066N   26189.72723299  .00004758  00000-0  41307-3 0  9991
2 39428  97.8323 110.0195 0075630 134.0067 226.7421 14.95307616677847
GOMX-1
1 39430U 13066Q   26190.79220171  .00000980  00000-0  15327-3 0  9990
2 39430  97.6479  29.8286 0128782   5.5778 354.6828 14.69533953673233
VELOX-PII
1 39438U 13066Y   26190.68511641  .00002153  00000-0  20658-3 0  9998
2 39438  97.8750 142.0782 0050831 268.3145  91.2252 14.93240022681198
CUBEBUG-2 (LO-74)
1 39440U 13066AA  26190.10024051  .00001725  00000-0  16295-3 0  9998
2 39440  97.8908 139.1745 0056180 316.1471  43.5295 14.93942821680269
FUNCUBE-1 (AO-73)
1 39444U 13066AE  26190.65921882  .00005060  00000-0  31236-3 0  9998
2 39444  97.8287 162.5794 0037793 125.6357 234.8401 15.09773935683052
UWE-3
1 39446U 13066AG  26189.33612893  .00001733  00000-0  15204-3 0  9992
2 39446  97.8696 145.5560 0047522 248.4998 111.1154 14.97171964680741
UNISAT-6
1 40012U 14033C   26190.65596992  .00001374  00000-0  15181-3 0  9991
2 40012  97.7900 342.9767 0044631 356.2388   3.8487 14.88353039649500
DUCHIFAT-1
1 40021U 14033M   26190.11683618  .00097268  00000-0  81159-3 0  9999
2 40021  98.0435 252.4424 0001719 258.2829 101.8238 15.69759950659183
SMAP
1 40376U 15003A   26190.84906517  .00000259  00000-0  59132-4 0  9997
2 40376  98.1280 197.6229 0001554  96.3836 263.7543 14.63386298610935
LILACSAT-2
1 40908U 15049K   26190.84120551  .00014753  00000-0  24450-3 0  9992
2 40908  97.4632 228.5514 0008024 157.4718 202.6888 15.52224887599267
LAPAN-A2 (IO-86)
1 40931U          25360.30710720  .00000000  00000-0  12800-3 0    00
2 40931   6.0006 332.5373 0012733 338.8432   8.1437 14.79075515    01
LQSAT
1 40958U 15057A   26190.29365296  .00000652  00000-0  99560-4 0  9990
2 40958  97.6694 182.5752 0016292 195.6223 164.4488 14.76811208578572
PRATHAM
1 41783U 16059A   26189.93064063  .00000443  00000-0  86315-4 0  9999
2 41783  97.8332 185.8338 0032023 147.0996 213.2211 14.67220741522701
ALSAT-1N
1 41789U 16059G   26190.86093372  .00000612  00000-0  11092-3 0  9991
2 41789  97.8017 193.2027 0027278 113.7278 246.6794 14.69343906523331
CAS-2T & KS-1Q
1 41847U 16066G   26190.12607526  .00000881  00000-0  13108-3 0  9993
2 41847  98.3814 265.6112 0342542  63.1325 300.4448 14.44761366507964
GOES-16
1 41866U 16071A   26190.61939271 -.00000078  00000-0  00000+0 0  9991
2 41866   0.3887  85.5442 0000536  91.0093 229.2970  1.00271434 35323
FENGYUN-4A
1 41882U 16077A   26190.87850483 -.00000347  00000-0  00000+0 0  9999
2 41882   2.3764  80.0393 0008366 158.4443 129.3714  1.00271335 35155
